[{"OBJECT_NAME":"STARLINK-1351","OBJECT_ID":"2020-035AS","EPOCH":"2026-03-09T03:21:10.846368","MEAN_MOTION":15.5224201,"ECCENTRICITY":0.00035916,"INCLINATION":53.0537,"RA_OF_ASC_NODE":24.2744,"ARG_OF_PERICENTER":121.7896,"MEAN_ANOMALY":238.3464,"EPHEMERIS_TYPE":0,"CLASSIFICATION_TYPE":"U","NORAD_CAT_ID":45697,"ELEMENT_SET_NO":999,"REV_AT_EPOCH":31928,"BSTAR":0.0017671716,"MEAN_MOTION_DOT":0.00110196,"MEAN_MOTION_DDOT":0},{"OBJECT_NAME":"JILIN-1 GAOFEN 3F","OBJECT_ID":"2020-065E","EPOCH":"2026-03-09T21:58:01.789536","MEAN_MOTION":15.52225222,"ECCENTRICITY":0.0016506,"INCLINATION":97.2386,"RA_OF_ASC_NODE":117.6066,"ARG_OF_PERICENTER":153.1702,"MEAN_ANOMALY":207.0408,"EPHEMERIS_TYPE":0,"CLASSIFICATION_TYPE":"U","NORAD_CAT_ID":46458,"ELEMENT_SET_NO":999,"REV_AT_EPOCH":30426,"BSTAR":0.00071721862,"MEAN_MOTION_DOT":0.00043818,"MEAN_MOTION_DDOT":0}]
